{"type":"FeatureCollection","features":[{"type":"Feature","geometry":{"type":"Polygon","coordinates":[[[119.743826,5.041528],[119.741635,5.03559],[119.744473,5.034551],[119.745225,5.036582],[119.744709,5.036786],[119.746181,5.040679],[119.743826,5.041528]]]},"properties":{"fill-opacity":1,"fill":"rgba(219, 251, 190, 1)","stroke-opacity":0}},{"type":"Feature","properties":{"stroke-width":9,"":0,"stroke":"rgba(107, 105, 105, 1)"},"geometry":{"type":"LineString","coordinates":[[119.743176,5.039426],[119.743541,5.039291],[119.743038,5.038021],[119.74303,5.037946],[119.743054,5.037909],[119.743096,5.037882],[119.744363,5.037275]]}},{"type":"Feature","properties":{"stroke-width":9,"stroke":"rgba(87, 86, 86, 1)"},"geometry":{"type":"LineString","coordinates":[[119.743216,5.03949],[119.743568,5.039355],[119.744099,5.040642]]}},{"type":"Feature","properties":{"stroke-width":9,"stroke":"rgba(105, 105, 106, 1)"},"geometry":{"type":"LineString","coordinates":[[119.74366,5.037613],[119.744268,5.03863],[119.74433,5.038775],[119.744358,5.038848],[119.744401,5.038975],[119.744416,5.039025],[119.74444,5.039129],[119.74446,5.039247],[119.744512,5.039603]]}},{"type":"Feature","properties":{"stroke-width":9,"stroke":"rgba(81, 81, 84, 1)"},"geometry":{"type":"LineString","coordinates":[[119.745081,5.040437],[119.744904,5.040007],[119.744817,5.039791],[119.744772,5.039683],[119.744749,5.039629],[119.74472,5.039581],[119.744684,5.039564],[119.744641,5.039559],[119.744505,5.039606],[119.744191,5.039753]]}},{"type":"Feature","properties":{"stroke-width":9,"stroke":"rgba(86, 86, 87, 1)"},"geometry":{"type":"LineString","coordinates":[[119.744294,5.039701],[119.744471,5.040122],[119.744395,5.040265],[119.744188,5.040394],[119.744251,5.040592],[119.744097,5.040649]]}},{"type":"Feature","properties":{"stroke-width":9,"stroke":"rgba(86, 86, 87, 1)"},"geometry":{"type":"LineString","coordinates":[[119.744357,5.037273],[119.745059,5.038649],[119.745543,5.040325],[119.744186,5.040867],[119.744098,5.040639]]}},{"type":"Feature","properties":{"stroke-width":9,"stroke":"rgba(98, 98, 98, 1)"},"geometry":{"type":"LineString","coordinates":[[119.74426,5.038622],[119.744496,5.038524]]}},{"type":"Feature","properties":{"stroke-width":9,"stroke":"rgba(87, 87, 87, 1)"},"geometry":{"type":"LineString","coordinates":[[119.743432,5.039011],[119.744286,5.038676]]}},{"type":"Feature","properties":{"stroke-width":9,"stroke":"rgba(84, 84, 86, 1)"},"geometry":{"type":"LineString","coordinates":[[119.743569,5.039331],[119.744403,5.03898]]}},{"type":"Feature","properties":{"stroke-width":9,"stroke":"rgba(109, 108, 108, 1)"},"geometry":{"type":"LineString","coordinates":[[119.743179,5.039433],[119.742479,5.037558],[119.743894,5.036913],[119.743324,5.035585]]}},{"type":"Feature","properties":{"stroke-width":9,"stroke":"rgba(98, 98, 100, 1)"},"geometry":{"type":"LineString","coordinates":[[119.743699,5.036455],[119.743105,5.036726],[119.742924,5.036314],[119.742821,5.03636]]}},{"type":"Feature","properties":{"stroke-width":9,"stroke":"rgba(83, 83, 86, 1)"},"geometry":{"type":"LineString","coordinates":[[119.742782,5.037411],[119.743039,5.037934]]}},{"type":"Feature","properties":{"stroke-width":9,"stroke":"rgba(109, 109, 111, 1)"},"geometry":{"type":"LineString","coordinates":[[119.743142,5.038276],[119.74386,5.037952]]}}]}